$$SOE
2461302.500000000, A.D. 2026-Sep-19 00:00:00.0000, 2.988431133575073E+08, 1.510251766287442E+08, -5.810845796755102E+07,
2461309.500000000, A.D. 2026-Sep-26 00:00:00.0000, 2.937625866375912E+08, 1.630030184598209E+08, -5.767669708235806E+07,
2461316.500000000, A.D. 2026-Oct-03 00:00:00.0000, 2.883220399272283E+08, 1.747810984491884E+08, -5.717424932545128E+07,
2461323.500000000, A.D. 2026-Oct-10 00:00:00.0000, 2.825315469970038E+08, 1.863470479231724E+08, -5.660240615405886E+07,
2461330.500000000, A.D. 2026-Oct-17 00:00:00.0000, 2.764016467056508E+08, 1.976891454716283E+08, -5.596256520216374E+07,
2461337.500000000, A.D. 2026-Oct-24 00:00:00.0000, 2.699432926476147E+08, 2.087963340882575E+08, -5.525622213948142E+07,
2461344.500000000, A.D. 2026-Oct-31 00:00:00.0000, 2.631678029146150E+08, 2.196582335926834E+08, -5.448496238192569E+07,
2461351.500000000, A.D. 2026-Nov-07 00:00:00.0000, 2.560868107416651E+08, 2.302651485585189E+08, -5.365045275742853E+07,
2461358.500000000, A.D. 2026-Nov-14 00:00:00.0000, 2.487122166305295E+08, 2.406080728305181E+08, -5.275443314734304E+07,
2461365.500000000, A.D. 2026-Nov-21 00:00:00.0000, 2.410561404869385E+08, 2.506786915494405E+08, -5.179870795081666E+07,
2461372.500000000, A.D. 2026-Nov-28 00:00:00.0000, 2.331308730868468E+08, 2.604693779570614E+08, -5.078513759383467E+07,
2461379.500000000, A.D. 2026-Dec-05 00:00:00.0000, 2.249488307791899E+08, 2.699731846273046E+08, -4.971563053428376E+07,
2461386.500000000, A.D. 2026-Dec-12 00:00:00.0000, 2.165225138305954E+08, 2.791838325376566E+08, -4.859213557928764E+07,
2461393.500000000, A.D. 2026-Dec-19 00:00:00.0000, 2.078644667144181E+08, 2.880956982976444E+08, -4.741663438610941E+07,
2461400.500000000, A.D. 2026-Dec-26 00:00:00.0000, 1.989872403482176E+08, 2.967037989815557E+08, -4.619113424153623E+07,
2461407.500000000, A.D. 2027-Jan-02 00:00:00.0000, 1.899033566608853E+08, 3.050037746881658E+08, -4.491766119025417E+07,
2461414.500000000, A.D. 2027-Jan-09 00:00:00.0000, 1.806252756731455E+08, 3.129918691555159E+08, -4.359825354402211E+07,
2461421.500000000, A.D. 2027-Jan-16 00:00:00.0000, 1.711653651585716E+08, 3.206649087380055E+08, -4.223495579069193E+07,
2461428.500000000, A.D. 2027-Jan-23 00:00:00.0000, 1.615358729317116E+08, 3.280202799919813E+08, -4.082981292142382E+07,
2461435.500000000, A.D. 2027-Jan-30 00:00:00.0000, 1.517489019242790E+08, 3.350559060928937E+08, -3.938486520304443E+07,
2461442.500000000, A.D. 2027-Feb-06 00:00:00.0000, 1.418163884244135E+08, 3.417702226785751E+08, -3.790214340822576E+07,
2461449.500000000, A.D. 2027-Feb-13 00:00:00.0000, 1.317500829510579E+08, 3.481621545729539E+08, -3.638366435924558E+07,
2461456.500000000, A.D. 2027-Feb-20 00:00:00.0000, 1.215615313129456E+08, 3.542310928077171E+08, -3.483142662572272E+07,
2461463.500000000, A.D. 2027-Feb-27 00:00:00.0000, 1.112620571426134E+08, 3.599768689211369E+08, -3.324740675608464E+07,
2461470.500000000, A.D. 2027-Mar-06 00:00:00.0000, 1.008627488148041E+08, 3.653997286373093E+08, -3.163355615155378E+07,
2461477.500000000, A.D. 2027-Mar-13 00:00:00.0000, 9.037444903477034E+07, 3.705003071283183E+08, -2.999179825447793E+07,
2461484.500000000, A.D. 2027-Mar-20 00:00:00.0000, 7.980774584318098E+07, 3.752796051560953E+08, -2.832402599884482E+07,
2461491.500000000, A.D. 2027-Mar-27 00:00:00.0000, 6.917296511232084E+07, 3.797389656602860E+08, -2.663209956861652E+07,
2461498.500000000, A.D. 2027-Apr-03 00:00:00.0000, 5.848016460859947E+07, 3.838800508427860E+08, -2.491784446793248E+07,
2461505.500000000, A.D. 2027-Apr-10 00:00:00.0000, 4.773912955529530E+07, 3.877048198539186E+08, -2.318304988786811E+07,
2461512.500000000, A.D. 2027-Apr-17 00:00:00.0000, 3.695936959206123E+07, 3.912155071325295E+08, -2.142946735357144E+07,
2461519.500000000, A.D. 2027-Apr-24 00:00:00.0000, 2.615011708769969E+07, 3.944146013904167E+08, -1.965880964468703E+07,
2461526.500000000, A.D. 2027-May-01 00:00:00.0000, 1.532032698677877E+07, 3.973048253090507E+08, -1.787274999501957E+07,
2461533.500000000, A.D. 2027-May-08 00:00:00.0000, 4.478678383033195E+06, 3.998891167269560E+08, -1.607292151973939E+07,
2461540.500000000, A.D. 2027-May-15 00:00:00.0000, -6.366423784675944E+06, 4.021706122916001E+08, -1.426091663696489E+07,
2461547.500000000, A.D. 2027-May-22 00:00:00.0000, -1.720684857865172E+07, 4.041526309902138E+08, -1.243828653409097E+07,
2461554.500000000, A.D. 2027-May-29 00:00:00.0000, -2.803473719543410E+07, 4.058386560898008E+08, -1.060654108892202E+07,
2461561.500000000, A.D. 2027-Jun-05 00:00:00.0000, -3.884249859353682E+07, 4.072323186180866E+08, -8.767149055150926E+06,
2461568.500000000, A.D. 2027-Jun-12 00:00:00.0000, -4.962280470592441E+07, 4.083373828081898E+08, -6.921538277809322E+06,
2461575.500000000, A.D. 2027-Jun-19 00:00:00.0000, -6.036858564638110E+07, 4.091577325550511E+08, -5.071095970065653E+06,
2461582.500000000, A.D. 2027-Jun-26 00:00:00.0000, -7.107302470332162E+07, 4.096973586024990E+08, -3.217169084614694E+06,
2461589.500000000, A.D. 2027-Jul-03 00:00:00.0000, -8.172955305548257E+07, 4.099603464469649E+08, -1.361064778334707E+06,
2461596.500000000, A.D. 2027-Jul-10 00:00:00.0000, -9.233184423272246E+07, 4.099508649414927E+08, 4.959490390008688E+05,
2461603.500000000, A.D. 2027-Jul-17 00:00:00.0000, -1.028738083394098E+08, 4.096731555330802E+08, 2.352643076487184E+06,
2461610.500000000, A.D. 2027-Jul-24 00:00:00.0000, -1.133495859324361E+08, 4.091315220392562E+08, 4.207825945059031E+06,
2461617.500000000, A.D. 2027-Jul-31 00:00:00.0000, -1.237535411872044E+08, 4.083303211657860E+08, 6.060343342560112E+06,
2461624.500000000, A.D. 2027-Aug-07 00:00:00.0000, -1.340802545948586E+08, 4.072739548841941E+08, 7.909077261901379E+06,
2461631.500000000, A.D. 2027-Aug-14 00:00:00.0000, -1.443245175303016E+08, 4.059668643857254E+08, 9.752945420138240E+06,
2461638.500000000, A.D. 2027-Aug-21 00:00:00.0000, -1.544813281050194E+08, 4.044135222160650E+08, 1.159090058371189E+07,
2461645.500000000, A.D. 2027-Aug-28 00:00:00.0000, -1.645458849045529E+08, 4.026184237627162E+08, 1.342192957988781E+07,
2461652.500000000, A.D. 2027-Sep-04 00:00:00.0000, -1.745135798186896E+08, 4.005860805717671E+08, 1.524505231257245E+07,
2461659.500000000, A.D. 2027-Sep-11 00:00:00.0000, -1.843799913794912E+08, 3.983210148054867E+08, 1.705932086113137E+07,
2461666.500000000, A.D. 2027-Sep-18 00:00:00.0000, -1.941408784911379E+08, 3.958277541604773E+08, 1.886381860113785E+07,
2461673.500000000, A.D. 2027-Sep-25 00:00:00.0000, -2.037921743385528E+08, 3.931108271392667E+08, 2.065765932348296E+07,
2461680.500000000, A.D. 2027-Oct-02 00:00:00.0000, -2.133299804136924E+08, 3.901747586749167E+08, 2.243998635048279E+07,
2461687.500000000, A.D. 2027-Oct-09 00:00:00.0000, -2.227505606489157E+08, 3.870240660775526E+08, 2.420997164939818E+07,
2461694.500000000, A.D. 2027-Oct-16 00:00:00.0000, -2.320503356041409E+08, 3.836632552226155E+08, 2.596681493556210E+07,
2461701.500000000, A.D. 2027-Oct-23 00:00:00.0000, -2.412258764559989E+08, 3.800968169509177E+08, 2.770974274297342E+07,
2461708.500000000, A.D. 2027-Oct-30 00:00:00.0000, -2.502738984210462E+08, 3.763292242677220E+08, 2.943800747975612E+07,
2461715.500000000, A.D. 2027-Nov-06 00:00:00.0000, -2.591912547825641E+08, 3.723649314478762E+08, 3.115088666905963E+07,
2461722.500000000, A.D. 2027-Nov-13 00:00:00.0000, -2.679749335102263E+08, 3.682083729519207E+08, 3.284768238925238E+07,
2461729.500000000, A.D. 2027-Nov-20 00:00:00.0000, -2.766220535711305E+08, 3.638639599465367E+08, 3.452772046977575E+07,
2461736.500000000, A.D. 2027-Nov-27 00:00:00.0000, -2.851298593168221E+08, 3.593360773726071E+08, 3.619034953760326E+07,
2461743.500000000, A.D. 2027-Dec-04 00:00:00.0000, -2.934957149730157E+08, 3.546290824585685E+08, 3.783494017554843E+07,
2461750.500000000, A.D. 2027-Dec-11 00:00:00.0000, -3.017170997827321E+08, 3.497473037000642E+08, 3.946088416490135E+07,
2461757.500000000, A.D. 2027-Dec-18 00:00:00.0000, -3.097916035268226E+08, 3.446950399512112E+08, 4.106759376007135E+07,
2461764.500000000, A.D. 2027-Dec-25 00:00:00.0000, -3.177169222687727E+08, 3.394765596104926E+08, 4.265450098161626E+07,
2461771.500000000, A.D. 2028-Jan-01 00:00:00.0000, -3.254908542809582E+08, 3.340960999022033E+08, 4.422105692546949E+07,
$$EOE